#cP2019  1 10  0  0  0.00000000      96 ORBIT IGS14 HLM  IGS
## 2035 345600.00000000   900.00000000 58493 0.0000000000000
+   32   G01G02G03G04G05G06G07G08G09G10G11G12G13G14G15G16G17
+        G18G19G20G21G22G23G24G25G26G27G28G29G30G31G32  0  0
+          0  0  0  0  0  0  0  0  0  0  0  0  0  0  0  0  0
+          0  0  0  0  0  0  0  0  0  0  0  0  0  0  0  0  0
+          0  0  0  0  0  0  0  0  0  0  0  0  0  0  0  0  0
++         2  2  2  0  2  2  2  2  2  2  2  2  2  2  2  2  2
++         3  2  2  2  2  2  2  2  3  0  2  2  2  2  2  0  0
++         0  0  0  0  0  0  0  0  0  0  0  0  0  0  0  0  0
++         0  0  0  0  0  0  0  0  0  0  0  0  0  0  0  0  0
++         0  0  0  0  0  0  0  0  0  0  0  0  0  0  0  0  0
%c G  cc GPS ccc cccc cccc cccc cccc ccccc ccccc ccccc ccccc
%c cc cc ccc ccc cccc cccc cccc cccc ccccc ccccc ccccc ccccc
%f  1.2500000  1.025000000  0.00000000000  0.000000000000000
%f  0.0000000  0.000000000  0.00000000000  0.000000000000000
%i    0    0    0    0      0      0      0      0         0
%i    0    0    0    0      0      0      0      0         0
/* FINAL ORBIT COMBINATION FROM WEIGHTED AVERAGE OF:        
/* cod emr esa gfz grg jpl mit ngs sio                      
/* REFERENCED TO IGS TIME (IGST) AND TO WEIGHTED MEAN POLE: 
/* PCV:IGS14_2035 OL/AL:FES2004  NONE     Y  ORB:CMB CLK:CMB
*  2019  1 10  2 15  0.00000000
PG01  13843.931334 -21913.545043   4817.919937   -142.789924  7  6  7  48       
PG02 -16491.570238   3419.778175 -19894.465534   -108.982987  7  7  9 113       
PG03  16253.976910 -13022.663258 -16479.080958    176.143869  8  6  5 103       
PG04  -9474.651166 -23678.386189  -7405.095173 999999.999999
PG05 -26550.899407   2328.417054  -1088.002542      0.749968  8  7  2  92       
PG06 -11199.896783 -10703.550205 -21532.475489    299.944802  7  8  5  82       
PG07   4357.584862 -24319.016159   9341.072156     54.582800  5  8  5  83       
PG08  14226.472573  -5780.341946  21737.671490   -128.534162  6  6  6 109       
PG09  -4354.252326 -22418.871276 -13602.601728    473.575665  7  8  7  89       
PG10  14760.595856  11755.379157  18814.317736    138.187208  6  5  5 111       
PG11  10167.047575 -20482.398845  13156.529723   -677.453408  7  7  7  83       
PG12 -19173.607518  10554.243671 -15114.345106    277.616225 11  8  7 126       
PG13 -17194.291583  -2985.594313  19913.200270    -78.832080  3  8  5  95       
PG14  17920.014118  17157.542160  -9424.165043    -93.395533  7  7  5  39       
PG15 -12526.147099   9665.964399  21084.432276   -332.874403  9  8  4 103       
PG16  26792.180554    292.775850   -760.100756    -11.788186  9  7  8 111       
PG17 -14375.382379 -22389.909733   -275.022710     -6.897097  4  5  5  77       
PG18  16540.928708 -15269.927200  13500.233682     14.236519  8  8 10 116       
PG19 -17668.798190 -16973.124185 -10407.924814   -364.978387  3  7  6  95       
PG20   4685.492888  15158.330924  21188.951206    520.948914  7  4  6 101       
PG21   -207.511465  24109.261557  12042.572267   -271.922800  6  3  5  95       
PG22  22060.324992 -10920.122224  -9685.013802   -619.160061  5  6  7  82       
PG23   5073.165591 -16903.830801 -19418.161103   -201.000260  9  8  7 107       
PG24 -15175.230348  19425.322713   9308.437325    -60.583641  6  6  7  99       
PG25  -7741.244401  14885.306034 -20720.391883   -703.685615  7  8  7 123       
PG26  24148.121995   4561.434343 -10301.669613     92.061371  3  8  7  87       
PG27  18664.776412   4989.586913  18266.467508 999999.999999
PG28 -11867.756384 -13399.343119  20215.464731    761.457647  6  4  4  88       
PG29    335.511617  21042.720693 -16222.603223    296.716708  9  8  5  95       
PG30  -4358.022866 -19375.600317  17568.966952    -33.401034  5  6  6  93       
PG31  13222.563075   7522.085040 -21750.614866     66.855169  4  9  7  85       
PG32  16961.791535  20331.884910  -2683.387490   -281.700550  7  5  4  63       
*  2019  1 10  2 30  0.00000000
PG01  13769.533340 -21145.525156   7598.741507   -142.795655  7  7  7  74       
PG02 -15769.503948   1073.181679 -20721.761289   -108.991951  7  7  8 111       
PG03  18029.275583 -13064.066584 -14466.327751    176.146249  8  6  5  95       
PG04  -8701.951829 -23002.746307 -10018.220006 999999.999999
PG05 -26323.495904   2020.876002  -3890.196008      0.750015  7  7  3  96       
PG06 -10211.599126 -12920.685538 -20794.454389    299.938012  6  8  5  93       
PG07   4973.804274 -25029.962709   6670.433039     54.576169  5  9  5  84       
PG08  15696.020386  -3833.495260  21163.681044   -128.535432  6  6  6 107       
PG09  -3164.532694 -21227.985827 -15689.957783    473.571584  7  7  7  80       
PG10  12580.494808  12139.768647  20096.392005    138.181468  6  5  5 100       
PG11  10526.468237 -18786.183730  15150.432986   -677.448858  7  7  7  74       
PG12 -20752.467360  10497.292640 -12855.891858    277.613841 11  9  7 119       
PG13 -18216.609848  -4961.999946  18575.682828    -78.830917  3  8  5  81       
PG14  18244.039568  18090.927966  -6786.463530    -93.395039  6  7  5  73       
PG15 -14171.629341   7834.542468  20839.792048   -332.872960  9  8  5  83       
PG16  26569.807947    453.371363  -3623.323522    -11.789978  8  7  9 113       
PG17 -14175.649098 -22418.824333   2615.357887     -6.892457  4  4  5  69       
PG18  16150.878627 -13552.190782  15586.035565     14.239383  7  8  9 140       
PG19 -18038.792424 -17923.207645  -7762.253937   -364.974676  3  6  6  92       
PG20   2296.303840  15737.144596  21148.725037    520.949769  7  5  6  98       
PG21   -807.826582  25096.448359   9591.793745   -271.916630  6  5  4  90       
PG22  23101.727804 -10786.470952  -7126.432639   -619.168138  5  7  7  72       
PG23   6631.271168 -15131.894238 -20407.632440   -200.999021  9  8  7 102       
PG24 -15031.047514  18158.794124  11769.180365    -60.583847  6  5  7  94       
PG25 -10006.058650  15065.507299 -19555.083400   -703.690531  7  8  7 125       
PG26  22884.823333   4975.046296 -12700.207813     92.070936  3  8  7  95       
PG27  19783.121933   6641.131385  16511.202884 999999.999999
PG28  -9623.613563 -13545.645220  21322.410014    761.458698  6  4  3  87       
PG29   -841.526368  19480.117521 -18054.445219    296.709042  9  8  6 106       
PG30  -3350.499328 -21019.654321  15794.317271    -33.406480  5  5  6  91       
PG31  12155.368236   9757.744255 -21444.421155     66.852783  4  9  6  66       
PG32  16846.677833  20608.214155    152.647267   -281.685367  7  4  4  75       
*  2019  1 10  2 45  0.00000000
PG01  13631.868410 -20081.508699  10245.669838   -142.801464  7  7  7  81       
PG02 -15143.024067  -1376.995735 -21171.719098   -109.000937  6  7  8 111       
PG03  19562.567493 -13153.812916 -12204.384724    176.148647  8  5  6  91       
PG04  -7715.895009 -22145.085970 -12458.840088 999999.999999
PG05 -25807.412007   1638.821912  -6626.383343      0.750559  7  7  3  92       
PG06  -9378.899327 -15089.631137 -19697.244153    299.931271  6  8  4  79       
PG07   5447.595100 -25479.855473   3882.613479     54.569510  5  9  5  92       
PG08  17210.941058  -2033.727023  20228.228105   -128.536270  6  7  6 104       
PG09  -1770.712350 -19933.523488 -17508.090767    473.567507  7  7  7 100       
PG10  10299.245501  12662.236545  21035.616891    138.175727  6  5  4  95       
PG11  10980.953915 -16892.080438  16876.695530   -677.444389  7  7  7  95       
PG12 -22067.414304  10495.088231 -10376.531103    277.610623 11  9  6 119       
PG13 -19247.479251  -6738.611724  16915.834328    -78.829910  4  8  5  81       
PG14  18437.761381  18756.873392  -4032.109122    -93.394537  6  7  5  71       
PG15 -15862.406642   6118.494758  20229.658213   -332.871439  9  8  5  82       
PG16  26040.984788    657.706732  -6425.979481    -11.792146  7  7  9  88       
PG17 -13782.706011 -22200.830347   5461.230820     -6.887810  3  4  5  80       
PG18  15782.236130 -11600.200660  17393.022841     14.243047  6  7  9 103       
PG19 -18283.565611 -18602.060356  -4983.423856   -364.971182  4  5  6  94       
PG20    -40.073266  16420.077001  20740.514677    520.949710  7  5  5  73       
PG21  -1284.052992  25845.054202   6981.780500   -271.910244  6  6  4  93       
PG22  23859.583325 -10629.751802  -4443.964412   -619.176310  6  7  7  75       
PG23   8331.976182 -13369.407529 -21033.676292   -200.998018  9  8  7 111       
PG24 -14869.946669  16629.796416  14022.439103    -60.585192  6  5  7  93       
PG25 -12113.057779  15340.510942 -18056.158093   -703.695437  8  9  7 119       
PG26  21391.336445   5506.296047 -14882.154400     92.080528  4  8  6  65       
PG27  20849.686314   8063.880296  14473.378577 999999.999999
PG28  -7291.845419 -13829.597890  22081.305969    761.459479  7  4  3 100       
PG29  -2218.594849  17834.054833 -19576.065600    296.701566  9  9  7 102       
PG30  -2505.405945 -22511.455642  13746.170711    -33.411945  5  5  6 104       
PG31  11224.058501  11997.658900 -20767.189840     66.850350  4  8  6  33       
PG32  16536.414046  20648.334993   2986.076437   -281.670208  7  3  5  68       
EOF
